FLOCK 4G-29             
1 62642U 25009AK  26068.81464037  .00011147  00000+0  41831-3 0  9994
2 62642  97.4058 151.3683 0001366 288.0502  72.0588 15.27382318 63721
STARLINK-34157          
1 64084U 25107W   26068.43183739  .00026726  00000+0  97682-3 0  9994
2 64084  42.9983 202.7687 0001566 199.7277 160.3514 15.27592506 46069
